{
  "type": "FeatureCollection",
  "features": [
    {
      "type": "Feature",
      "properties": {
        "norad_id": 26766,
        "name": "INTELSAT 10 (IS-10)",
        "group": "intelsat",
        "lat": 8.624807356124917,
        "lon": 157.14144076320395,
        "alt_km": 36148.33980971564,
        "timestamp": "2025-12-25T22:42:16.663913+00:00",
        "meta_object_name": "INTELSAT 10 (IS-10)",
        "meta_object_id": "2001-019A",
        "meta_epoch": "2025-12-25T17:45:36.571104",
        "meta_mean_motion": 0.99072014,
        "meta_eccentricity": 0.0008006,
        "meta_inclination": 8.6585,
        "meta_ra_of_asc_node": 61.025,
        "meta_arg_of_pericenter": 229.9491,
        "meta_mean_anomaly": 152.6866,
        "meta_ephemeris_type": 0,
        "meta_classification_type": "U",
        "meta_norad_cat_id": 26766,
        "meta_element_set_no": 999,
        "meta_rev_at_epoch": 4386,
        "meta_bstar": 0,
        "meta_mean_motion_dot": 3.7e-07,
        "meta_mean_motion_ddot": 0,
        "tle_line1": "1 26766U 01019A   25359.74000661  .00000037  00000+0  00000+0 0  9994",
        "tle_line2": "2 26766   8.6585  61.0250 0008006 229.9491 152.6866  0.99072014 43862"
      },
      "geometry": {
        "type": "Point",
        "coordinates": [
          157.14144076320395,
          8.624807356124917
        ]
      }
    },
    {
      "type": "Feature",
      "properties": {
        "norad_id": 26900,
        "name": "INTELSAT 902 (IS-902)",
        "group": "intelsat",
        "lat": -4.271293235140391,
        "lon": 25.23699793256926,
        "alt_km": 35797.87720707021,
        "timestamp": "2025-12-25T22:42:16.663936+00:00",
        "meta_object_name": "INTELSAT 902 (IS-902)",
        "meta_object_id": "2001-039A",
        "meta_epoch": "2025-12-15T13:09:02.081664",
        "meta_mean_motion": 1.0027087,
        "meta_eccentricity": 0.00045028,
        "meta_inclination": 5.6536,
        "meta_ra_of_asc_node": 74.0372,
        "meta_arg_of_pericenter": 189.6359,
        "meta_mean_anomaly": 327.9329,
        "meta_ephemeris_type": 0,
        "meta_classification_type": "U",
        "meta_norad_cat_id": 26900,
        "meta_element_set_no": 999,
        "meta_rev_at_epoch": 8885,
        "meta_bstar": 0,
        "meta_mean_motion_dot": -2.65e-06,
        "meta_mean_motion_ddot": 0,
        "tle_line1": "1 26900U 01039A   25349.54794076 -.00000265  00000+0  00000+0 0  9997",
        "tle_line2": "2 26900   5.6536  74.0372 0004502 189.6359 327.9329  1.00270870 88858"
      },
      "geometry": {
        "type": "Point",
        "coordinates": [
          25.23699793256926,
          -4.271293235140391
        ]
      }
    },
    {
      "type": "Feature",
      "properties": {
        "norad_id": 27380,
        "name": "INTELSAT 904 (IS-904)",
        "group": "intelsat",
        "lat": -2.982230855171659,
        "lon": 43.95506603389579,
        "alt_km": 35785.66728501019,
        "timestamp": "2025-12-25T22:42:16.663953+00:00",
        "meta_object_name": "INTELSAT 904 (IS-904)",
        "meta_object_id": "2002-007A",
        "meta_epoch": "2025-12-24T23:13:20.404128",
        "meta_mean_motion": 1.00272977,
        "meta_eccentricity": 0.00019711,
        "meta_inclination": 6.4832,
        "meta_ra_of_asc_node": 71.2913,
        "meta_arg_of_pericenter": 246.5744,
        "meta_mean_anomaly": 92.7188,
        "meta_ephemeris_type": 0,
        "meta_classification_type": "U",
        "meta_norad_cat_id": 27380,
        "meta_element_set_no": 999,
        "meta_rev_at_epoch": 5001,
        "meta_bstar": 0,
        "meta_mean_motion_dot": -2.07e-06,
        "meta_mean_motion_ddot": 0,
        "tle_line1": "1 27380U 02007A   25358.96759727 -.00000207  00000+0  00000+0 0  9992",
        "tle_line2": "2 27380   6.4832  71.2913 0001971 246.5744  92.7188  1.00272977 50014"
      },
      "geometry": {
        "type": "Point",
        "coordinates": [
          43.95506603389579,
          -2.982230855171659
        ]
      }
    },
    {
      "type": "Feature",
      "properties": {
        "norad_id": 27426,
        "name": "DIRECTV 5 (TEMPO 1)",
        "group": "intelsat",
        "lat": -4.11693554525545,
        "lon": -34.887416474926525,
        "alt_km": 35776.33119792337,
        "timestamp": "2025-12-25T22:42:16.663967+00:00",
        "meta_object_name": "DIRECTV 5 (TEMPO 1)",
        "meta_object_id": "2002-023A",
        "meta_epoch": "2025-12-25T07:28:38.731296",
        "meta_mean_motion": 1.00271555,
        "meta_eccentricity": 0.0003354,
        "meta_inclination": 4.4323,
        "meta_ra_of_asc_node": 77.5052,
        "meta_arg_of_pericenter": 204.4666,
        "meta_mean_anomaly": 174.1445,
        "meta_ephemeris_type": 0,
        "meta_classification_type": "U",
        "meta_norad_cat_id": 27426,
        "meta_element_set_no": 999,
        "meta_rev_at_epoch": 8638,
        "meta_bstar": 0,
        "meta_mean_motion_dot": -3.7e-07,
        "meta_mean_motion_ddot": 0,
        "tle_line1": "1 27426U 02023A   25359.31155939 -.00000037  00000+0  00000+0 0  9997",
        "tle_line2": "2 27426   4.4323  77.5052 0003354 204.4666 174.1445  1.00271555 86385"
      },
      "geometry": {
        "type": "Point",
        "coordinates": [
          -34.887416474926525,
          -4.11693554525545
        ]
      }
    },
    {
      "type": "Feature",
      "properties": {
        "norad_id": 27438,
        "name": "INTELSAT 905 (IS-905)",
        "group": "intelsat",
        "lat": -4.572949806952516,
        "lon": -62.07554279955694,
        "alt_km": 35775.036093920215,
        "timestamp": "2025-12-25T22:42:16.663980+00:00",
        "meta_object_name": "INTELSAT 905 (IS-905)",
        "meta_object_id": "2002-027A",
        "meta_epoch": "2025-12-23T05:41:27.377952",
        "meta_mean_motion": 1.00273243,
        "meta_eccentricity": 0.00027491,
        "meta_inclination": 6.3102,
        "meta_ra_of_asc_node": 71.9349,
        "meta_arg_of_pericenter": 206.5226,
        "meta_mean_anomaly": 121.7385,
        "meta_ephemeris_type": 0,
        "meta_classification_type": "U",
        "meta_norad_cat_id": 27438,
        "meta_element_set_no": 999,
        "meta_rev_at_epoch": 4959,
        "meta_bstar": 0,
        "meta_mean_motion_dot": 1.12e-06,
        "meta_mean_motion_ddot": 0,
        "tle_line1": "1 27438U 02027A   25357.23712243  .00000112  00000+0  00000+0 0  9993",
        "tle_line2": "2 27438   6.3102  71.9349 0002749 206.5226 121.7385  1.00273243 49592"
      },
      "geometry": {
        "type": "Point",
        "coordinates": [
          -62.07554279955694,
          -4.572949806952516
        ]
      }
    },
    {
      "type": "Feature",
      "properties": {
        "norad_id": 27445,
        "name": "GALAXY 3C (G-3C)",
        "group": "intelsat",
        "lat": -3.2571365977116615,
        "lon": -19.60428838221179,
        "alt_km": 35790.82368837272,
        "timestamp": "2025-12-25T22:42:16.663992+00:00",
        "meta_object_name": "GALAXY 3C (G-3C)",
        "meta_object_id": "2002-030A",
        "meta_epoch": "2025-12-25T14:19:42.420000",
        "meta_mean_motion": 1.00271629,
        "meta_eccentricity": 0.0001018,
        "meta_inclination": 3.2938,
        "meta_ra_of_asc_node": 80.3705,
        "meta_arg_of_pericenter": 86.0973,
        "meta_mean_anomaly": 47.9599,
        "meta_ephemeris_type": 0,
        "meta_classification_type": "U",
        "meta_norad_cat_id": 27445,
        "meta_element_set_no": 999,
        "meta_rev_at_epoch": 4475,
        "meta_bstar": 0,
        "meta_mean_motion_dot": -1.32e-06,
        "meta_mean_motion_ddot": 0,
        "tle_line1": "1 27445U 02030A   25359.59701875 -.00000132  00000+0  00000+0 0  9998",
        "tle_line2": "2 27445   3.2938  80.3705 0001018  86.0973  47.9599  1.00271629 44756"
      },
      "geometry": {
        "type": "Point",
        "coordinates": [
          -19.60428838221179,
          -3.2571365977116615
        ]
      }
    },
    {
      "type": "Feature",
      "properties": {
        "norad_id": 27513,
        "name": "INTELSAT 906 (IS-906)",
        "group": "intelsat",
        "lat": 4.847516282480208,
        "lon": 139.2470736805345,
        "alt_km": 35804.867464647,
        "timestamp": "2025-12-25T22:42:16.664004+00:00",
        "meta_object_name": "INTELSAT 906 (IS-906)",
        "meta_object_id": "2002-041A",
        "meta_epoch": "2025-12-24T20:15:07.471872",
        "meta_mean_motion": 1.0027071,
        "meta_eccentricity": 0.0006188,
        "meta_inclination": 5.3608,
        "meta_ra_of_asc_node": 75.0877,
        "meta_arg_of_pericenter": 201.2987,
        "meta_mean_anomaly": 185.1407,
        "meta_ephemeris_type": 0,
        "meta_classification_type": "U",
        "meta_norad_cat_id": 27513,
        "meta_element_set_no": 999,
        "meta_rev_at_epoch": 8528,
        "meta_bstar": 0,
        "meta_mean_motion_dot": 3.2e-07,
        "meta_mean_motion_ddot": 0,
        "tle_line1": "1 27513U 02041A   25358.84383648  .00000032  00000+0  00000+0 0  9995",
        "tle_line2": "2 27513   5.3608  75.0877 0006188 201.2987 185.1407  1.00270710 85285"
      },
      "geometry": {
        "type": "Point",
        "coordinates": [
          139.2470736805345,
          4.847516282480208
        ]
      }
    }
  ]
}